OBJECT_NAME,OBJECT_ID,EPOCH,MEAN_MOTION,ECCENTRICITY,INCLINATION,RA_OF_ASC_NODE,ARG_OF_PERICENTER,MEAN_ANOMALY,EPHEMERIS_TYPE,CLASSIFICATION_TYPE,NORAD_CAT_ID,ELEMENT_SET_NO,REV_AT_EPOCH,BSTAR,MEAN_MOTION_DOT,MEAN_MOTION_DDOT
STARLINK-4525,2022-097P,2026-06-16T21:51:13.501152,15.08840620,.0001264,53.1602,38.6071,98.9622,261.1512,0,U,53401,999,21349,-.39912E-4,-.923E-5,0
STARLINK-4499,2022-097Q,2026-06-16T23:00:06.990336,15.08836544,.0001389,53.1607,38.3916,94.0303,266.0847,0,U,53402,999,21350,.65136E-4,.749E-5,0
STARLINK-4507,2022-097R,2026-06-16T20:54:22.671936,15.08829454,.0001279,53.1611,39.1302,85.9843,274.1295,0,U,53403,999,21348,.92811E-6,-.273E-5,0
STARLINK-4509,2022-097S,2026-06-16T21:00:55.565568,15.08832068,.0001328,53.1601,28.6958,92.4967,267.6176,0,U,53404,999,21362,.1517E-4,-.47E-6,0
STARLINK-4510,2022-097T,2026-06-16T22:54:49.645728,15.08820086,.0001393,53.1597,38.4069,83.1513,276.9636,0,U,53405,999,21350,-.12858E-3,-.2333E-4,0
STARLINK-4533,2022-097U,2026-06-16T22:19:02.944416,15.08832519,.0001314,53.1599,28.5200,87.7844,272.3298,0,U,53406,999,21363,.7483E-4,.903E-5,0
STARLINK-4491,2022-097W,2026-06-16T20:59:33.252288,15.08849854,.0001175,53.1589,28.7727,93.1090,267.0036,0,U,53408,999,21362,.11733E-3,.158E-4,0
STARLINK-4490,2022-097X,2026-06-16T20:50:19.305600,15.08826808,.000132,53.1598,18.9885,92.0689,268.0454,0,U,53409,999,21376,-.51254E-4,-.1103E-4,0
STARLINK-4492,2022-097Y,2026-06-16T22:29:38.615136,15.08834097,.0001314,53.1600,28.4866,89.9816,270.1326,0,U,53410,999,21363,.71401E-4,.848E-5,0
STARLINK-4497,2022-097Z,2026-06-16T21:04:51.427200,15.08836512,.0001286,53.1593,28.7520,85.6988,274.4151,0,U,53411,999,21362,.38765E-4,.329E-5,0
STARLINK-4496,2022-097AA,2026-06-16T22:13:44.982048,15.08830550,.0001266,53.1602,28.5377,87.5000,272.6137,0,U,53412,999,21363,.57039E-4,.62E-5,0
STARLINK-4500,2022-097AB,2026-06-16T22:24:21.044160,15.08826927,.0001209,53.1600,28.5028,88.0694,272.0436,0,U,53413,999,21363,.95337E-4,.1229E-4,0
STARLINK-4304,2022-097AC,2026-06-16T22:08:27.025728,15.08831767,.0001223,53.1601,28.5522,89.7809,270.3322,0,U,53414,999,21362,.43793E-4,.409E-5,0
STARLINK-4479,2022-097AD,2026-06-16T22:03:09.116064,15.08835456,.0001352,53.1604,28.5689,91.3288,268.7858,0,U,53415,999,21360,.46149E-4,.446E-5,0
STARLINK-4480,2022-097AE,2026-06-16T21:41:58.178112,15.08823199,.0001504,53.1599,28.5858,97.2630,262.8532,0,U,53416,999,21360,-.55515E-5,-.376E-5,0
STARLINK-4484,2022-097AF,2026-06-16T21:57:51.028416,15.08835063,.0001322,53.1598,28.5851,91.1168,268.9974,0,U,53417,999,21360,.10358E-3,.1361E-4,0
STARLINK-4481,2022-097AG,2026-06-17T12:54:39.884832,15.08826746,.0001435,53.1607,15.3494,89.6382,270.4773,0,U,53418,999,21387,.44435E-4,.419E-5,0
STARLINK-4476,2022-097AH,2026-06-16T21:52:34.045824,15.08819170,.0001313,53.1590,28.6007,69.8744,290.2388,0,U,53419,999,21360,.37459E-3,.5675E-4,0
STARLINK-4552,2022-097AJ,2026-06-16T21:36:38.963808,15.08836276,.0001381,53.1604,28.6509,93.2025,266.9125,0,U,53420,999,21360,.14912E-4,-.51E-6,0
STARLINK-4545,2022-097AK,2026-06-16T21:47:15.641952,15.08824883,.0001405,53.1611,28.6189,95.3252,264.7899,0,U,53421,999,21360,.57835E-5,-.196E-5,0
STARLINK-4546,2022-097AL,2026-06-16T21:26:03.071040,15.08838102,.0001383,53.1596,28.6839,94.9538,265.1611,0,U,53422,999,21362,.46657E-4,.455E-5,0
STARLINK-4539,2022-097AM,2026-06-17T12:00:02.998944,15.20597620,.0002358,53.1606,25.6748,82.9263,58.1088,0,U,53423,999,583,.51391E-2,.115546E-2,0
STARLINK-4532,2022-097AN,2026-06-16T21:15:27.601632,15.08836140,.0001325,53.1591,28.7177,89.0495,271.0649,0,U,53424,999,21362,.34621E-4,.263E-5,0
STARLINK-4531,2022-097AP,2026-06-17T12:00:02.998944,15.14291312,.0000697,53.1601,25.8726,115.3957,326.5623,0,U,53425,999,584,.43883E-2,.81888E-3,0
STARLINK-4558,2022-097AQ,2026-06-16T20:45:00.914688,15.08826613,.0001249,53.1602,18.9674,90.0759,270.0376,0,U,53426,999,21375,.13429E-3,.1849E-4,0
STARLINK-4543,2022-097AT,2026-06-17T12:00:02.998944,15.11456142,.0001948,53.1596,16.0561,85.4951,155.0883,0,U,53429,999,583,.4382E-2,.7546E-3,0
STARLINK-4538,2022-097AU,2026-06-17T12:00:02.998944,15.11726006,.0001942,53.1594,15.9751,98.4012,184.7855,0,U,53430,999,578,.44683E-2,.77555E-3,0
STARLINK-4548,2022-097AV,2026-06-16T21:06:06.425856,15.08834432,.0001186,53.1592,18.3592,91.2722,268.8405,0,U,53431,999,21376,.11497E-3,.1542E-4,0
STARLINK-4557,2022-097AW,2026-06-17T03:48:25.968096,15.09140630,.0001844,53.1598,17.2489,143.2317,216.8801,0,U,53432,999,21380,.2386E-2,.38208E-3,0
STARLINK-4549,2022-097AX,2026-06-16T20:23:47.526432,15.08831636,.0001303,53.1604,18.8765,91.1778,268.9363,0,U,53433,999,21373,.41455E-5,-.222E-5,0
