STARLINK-4525           
1 53401U 22097P   26167.91057293 -.00000923  00000+0 -39912-4 0  9994
2 53401  53.1602  38.6071 0001264  98.9622 261.1512 15.08840620213497
STARLINK-4499           
1 53402U 22097Q   26167.95841424  .00000749  00000+0  65136-4 0  9997
2 53402  53.1607  38.3916 0001389  94.0303 266.0847 15.08836544213506
STARLINK-4507           
1 53403U 22097R   26167.87109574 -.00000273  00000+0  92811-6 0  9997
2 53403  53.1611  39.1302 0001279  85.9843 274.1295 15.08829454213482
STARLINK-4509           
1 53404U 22097S   26167.87564312 -.00000047  00000+0  15170-4 0  9993
2 53404  53.1601  28.6958 0001328  92.4967 267.6176 15.08832068213623
STARLINK-4510           
1 53405U 22097T   26167.95474127 -.00002333  00000+0 -12858-3 0  9997
2 53405  53.1597  38.4069 0001393  83.1513 276.9636 15.08820086213504
STARLINK-4533           
1 53406U 22097U   26167.92989519  .00000903  00000+0  74830-4 0  9999
2 53406  53.1599  28.5200 0001314  87.7844 272.3298 15.08832519213636
STARLINK-4491           
1 53408U 22097W   26167.87469042  .00001580  00000+0  11733-3 0  9993
2 53408  53.1589  28.7727 0001175  93.1090 267.0036 15.08849854213622
STARLINK-4490           
1 53409U 22097X   26167.86827900 -.00001103  00000+0 -51254-4 0  9990
2 53409  53.1598  18.9885 0001320  92.0689 268.0454 15.08826808213767
STARLINK-4492           
1 53410U 22097Y   26167.93725249  .00000848  00000+0  71401-4 0  9992
2 53410  53.1600  28.4866 0001314  89.9816 270.1326 15.08834097213635
STARLINK-4497           
1 53411U 22097Z   26167.87837300  .00000329  00000+0  38765-4 0  9998
2 53411  53.1593  28.7520 0001286  85.6988 274.4151 15.08836512213624
STARLINK-4496           
1 53412U 22097AA  26167.92621507  .00000620  00000+0  57039-4 0  9994
2 53412  53.1602  28.5377 0001266  87.5000 272.6137 15.08830550213639
STARLINK-4500           
1 53413U 22097AB  26167.93357690  .00001229  00000+0  95337-4 0  9994
2 53413  53.1600  28.5028 0001209  88.0694 272.0436 15.08826927213632
STARLINK-4304           
1 53414U 22097AC  26167.92253502  .00000409  00000+0  43793-4 0  9999
2 53414  53.1601  28.5522 0001223  89.7809 270.3322 15.08831767213627
STARLINK-4479           
1 53415U 22097AD  26167.91885551  .00000446  00000+0  46149-4 0  9993
2 53415  53.1604  28.5689 0001352  91.3288 268.7858 15.08835456213600
STARLINK-4480           
1 53416U 22097AE  26167.90414558 -.00000376  00000+0 -55515-5 0  9990
2 53416  53.1599  28.5858 0001504  97.2630 262.8532 15.08823199213602
STARLINK-4484           
1 53417U 22097AF  26167.91517394  .00001361  00000+0  10358-3 0  9991
2 53417  53.1598  28.5851 0001322  91.1168 268.9974 15.08835063213602
STARLINK-4481           
1 53418U 22097AG  26168.53796163  .00000419  00000+0  44435-4 0  9991
2 53418  53.1607  15.3494 0001435  89.6382 270.4773 15.08826746213878
STARLINK-4476           
1 53419U 22097AH  26167.91150516  .00005675  00000+0  37459-3 0  9995
2 53419  53.1590  28.6007 0001313  69.8744 290.2388 15.08819170213600
STARLINK-4552           
1 53420U 22097AJ  26167.90045097 -.00000051  00000+0  14912-4 0  9997
2 53420  53.1604  28.6509 0001381  93.2025 266.9125 15.08836276213608
STARLINK-4545           
1 53421U 22097AK  26167.90781993 -.00000196  00000+0  57835-5 0  9992
2 53421  53.1611  28.6189 0001405  95.3252 264.7899 15.08824883213608
STARLINK-4546           
1 53422U 22097AL  26167.89309110  .00000455  00000+0  46657-4 0  9994
2 53422  53.1596  28.6839 0001383  94.9538 265.1611 15.08838102213628
STARLINK-4539           
1 53423U 22097AM  26168.50003471  .00115546  00000+0  51391-2 0  9992
2 53423  53.1606  25.6748 0002358  82.9263  58.1088 15.20597620  5833
STARLINK-4532           
1 53424U 22097AN  26167.88573613  .00000263  00000+0  34621-4 0  9991
2 53424  53.1591  28.7177 0001325  89.0495 271.0649 15.08836140213621
STARLINK-4531           
1 53425U 22097AP  26168.50003471  .00081888  00000+0  43883-2 0  9992
2 53425  53.1601  25.8726 0000697 115.3957 326.5623 15.14291312  5843
STARLINK-4558           
1 53426U 22097AQ  26167.86459392  .00001849  00000+0  13429-3 0  9991
2 53426  53.1602  18.9674 0001249  90.0759 270.0376 15.08826613213753
STARLINK-4543           
1 53429U 22097AT  26168.50003471  .00075460  00000+0  43820-2 0  9996
2 53429  53.1596  16.0561 0001948  85.4951 155.0883 15.11456142  5833
STARLINK-4538           
1 53430U 22097AU  26168.50003471  .00077555  00000+0  44683-2 0  9993
2 53430  53.1594  15.9751 0001942  98.4012 184.7855 15.11726006  5789
STARLINK-4548           
1 53431U 22097AV  26167.87924104  .00001542  00000+0  11497-3 0  9999
2 53431  53.1592  18.3592 0001186  91.2722 268.8405 15.08834432213760
STARLINK-4557           
1 53432U 22097AW  26168.15863389  .00038208  00000+0  23860-2 0  9994
2 53432  53.1598  17.2489 0001844 143.2317 216.8801 15.09140630213808
STARLINK-4549           
1 53433U 22097AX  26167.84985563 -.00000222  00000+0  41455-5 0  9998
2 53433  53.1604  18.8765 0001303  91.1778 268.9363 15.08831636213738
